NORAD_CAT_ID,OBJECT_NAME,OBJECT_TYPE,EPOCH,MEAN_MOTION,ECCENTRICITY,INCLINATION,RA_OF_ASC_NODE,ARG_OF_PERICENTER,MEAN_ANOMALY,BSTAR,MEAN_MOTION_DOT,MEAN_MOTION_DDOT,TLE_LINE0,TLE_LINE1,TLE_LINE2,SEMIMAJOR_AXIS,PERIOD,APOGEE,PERIGEE,DECAYED
52464.0,STARLINK-3904,PAYLOAD,2024-04-21 13:32:18,15.08837201,0.0001564,53.2181,263.7418,114.3524,245.7632,-5.6887e-05,-1.193e-05,0.0,0 STARLINK-3904,1 52464U 22049P   24112.56410687 -.00001193  00000-0 -56887-4 0  9999,2 52464  53.2181 263.7418 0001564 114.3524 245.7632 15.08837201108519,6917.889,95.438,540.836,538.672,0.0
52464.0,STARLINK-3904,PAYLOAD,2024-04-21 15:07:41,15.08836646,0.0001555,53.2181,263.4444,114.8168,245.2986,-6.6527e-05,-1.347e-05,0.0,0 STARLINK-3904,1 52464U 22049P   24112.63034717 -.00001347  00000-0 -66527-4 0  9996,2 52464  53.2181 263.4444 0001555 114.8168 245.2986 15.08836646108524,6917.891,95.438,540.831,538.68,0.0
52464.0,STARLINK-3904,PAYLOAD,2024-04-22 16:33:52,15.08835748,0.0001478,53.2182,258.6878,109.8222,250.2929,5.8541e-05,6.44e-06,0.0,0 STARLINK-3904,1 52464U 22049P   24113.69018588  .00000644  00000-0  58541-4 0  9995,2 52464  53.2182 258.6878 0001478 109.8222 250.2929 15.08835748108841,6917.893,95.438,540.781,538.736,0.0
52464.0,STARLINK-3904,PAYLOAD,2024-04-23 13:13:54,15.08819804,0.0001431,53.2177,254.8211,99.506,260.6094,-1.6954e-05,-5.58e-06,0.0,0 STARLINK-3904,1 52464U 22049P   24114.55132209 -.00000558  00000-0 -16954-4 0  9996,2 52464  53.2177 254.8211 0001431  99.5060 260.6094 15.08819804108975,6917.942,95.439,540.797,538.817,0.0
52464.0,STARLINK-3904,PAYLOAD,2024-04-23 14:49:17,15.08821667,0.0001431,53.2177,254.5237,100.3413,259.774,2.0022e-07,-2.85e-06,0.0,0 STARLINK-3904,1 52464U 22049P   24114.61756122 -.00000285  00000-0  20022-6 0  9998,2 52464  53.2177 254.5237 0001431 100.3413 259.7740 15.08821667108824,6917.936,95.439,540.791,538.811,0.0
52464.0,STARLINK-3904,PAYLOAD,2024-04-24 13:04:41,15.08827527,0.0001442,53.218,250.3682,106.1495,253.9656,-4.9346e-05,-1.073e-05,0.0,0 STARLINK-3904,1 52464U 22049P   24115.54492910 -.00001073  00000-0 -49346-4 0  9998,2 52464  53.2180 250.3682 0001442 106.1495 253.9656 15.08827527109129,6917.919,95.438,540.781,538.786,0.0
52464.0,STARLINK-3904,PAYLOAD,2024-04-24 14:40:06,15.08806052,0.0001826,53.2181,250.0709,129.1867,230.9288,-0.00019839,-3.441e-05,0.0,0 STARLINK-3904,1 52464U 22049P   24115.61118437 -.00003441  00000-0 -19839-3 0  9999,2 52464  53.2181 250.0709 0001826 129.1867 230.9288 15.08806052109138,6917.984,95.44,541.112,538.586,0.0
52464.0,STARLINK-3904,PAYLOAD,2024-04-25 12:55:29,15.08829076,0.0001606,53.2182,245.9127,81.4516,278.6658,0.00015469,2.174e-05,0.0,0 STARLINK-3904,1 52464U 22049P   24116.53853110  .00002174  00000-0  15469-3 0  9990,2 52464  53.2182 245.9127 0001606  81.4516 278.6658 15.08829076109279,6917.914,95.438,540.89,538.668,0.0
52464.0,STARLINK-3904,PAYLOAD,2024-04-25 14:30:51,15.08842607,0.0001525,53.2177,245.6083,99.9689,260.1476,0.00026388,3.914e-05,0.0,0 STARLINK-3904,1 52464U 22049P   24116.60475924  .00003914  00000-0  26388-3 0  9996,2 52464  53.2177 245.6083 0001525  99.9689 260.1476 15.08842607109129,6917.872,95.437,540.792,538.682,0.0
52464.0,STARLINK-3904,PAYLOAD,2024-04-25 16:06:13,15.08847581,0.0001413,53.2176,245.3092,94.9202,265.1951,0.00030625,4.59e-05,0.0,0 STARLINK-3904,1 52464U 22049P   24116.67099526  .00004590  00000-0  30625-3 0  9993,2 52464  53.2176 245.3092 0001413  94.9202 265.1951 15.08847581109294,6917.857,95.437,540.7,538.745,0.0
52464.0,STARLINK-3904,PAYLOAD,2024-04-26 12:46:15,15.08827767,0.000155,53.218,241.4467,79.8427,280.274,0.00034772,5.248e-05,0.0,0 STARLINK-3904,1 52464U 22049P   24117.53212595  .00005248  00000-0  34772-3 0  9990,2 52464  53.2180 241.4467 0001550  79.8427 280.2740 15.08827767109428,6917.918,95.438,540.855,538.711,0.0
52464.0,STARLINK-3904,PAYLOAD,2024-04-26 14:21:38,15.08831183,0.0001476,53.2183,241.1471,119.7823,240.3316,0.00033194,4.998e-05,0.0,0 STARLINK-3904,1 52464U 22049P   24117.59836221  .00004998  00000-0  33194-3 0  9992,2 52464  53.2183 241.1471 0001476 119.7823 240.3316 15.08831183109270,6917.907,95.438,540.793,538.751,0.0
52464.0,STARLINK-3904,PAYLOAD,2024-04-26 15:57:01,15.08833668,0.0001409,53.2181,240.8498,113.0362,247.0779,0.00034954,5.278e-05,0.0,0 STARLINK-3904,1 52464U 22049P   24117.66460059  .00005278  00000-0  34954-3 0  9999,2 52464  53.2181 240.8498 0001409 113.0362 247.0779 15.08833668109440,6917.9,95.438,540.739,538.79,0.0
52464.0,STARLINK-3904,PAYLOAD,2024-04-27 14:12:25,15.08847193,0.0001148,53.2182,236.6861,86.6686,273.4437,-0.00014209,-2.549e-05,0.0,0 STARLINK-3904,1 52464U 22049P   24118.59195972 -.00002549  00000-0 -14209-3 0  9992,2 52464  53.2182 236.6861 0001148  86.6686 273.4437 15.08847193109422,6917.858,95.437,540.518,538.929,0.0
52464.0,STARLINK-3904,PAYLOAD,2024-04-28 14:03:12,15.08833475,0.0001373,53.2195,232.2262,104.9906,255.1238,-0.00013749,-2.475e-05,0.0,0 STARLINK-3904,1 52464U 22049P   24119.58556278 -.00002475  00000-0 -13749-3 0  9998,2 52464  53.2195 232.2262 0001373 104.9906 255.1238 15.08833475109730,6917.9,95.438,540.715,538.816,0.0
52464.0,STARLINK-3904,PAYLOAD,2024-04-28 17:13:58,15.08841449,0.0001017,53.2177,231.6307,92.699,267.4119,-7.2954e-05,-1.449e-05,0.0,0 STARLINK-3904,1 52464U 22049P   24119.71803609 -.00001449  00000-0 -72954-4 0  9990,2 52464  53.2177 231.6307 0001017  92.6990 267.4119 15.08841449109750,6917.876,95.437,540.445,539.037,0.0
52464.0,STARLINK-3904,PAYLOAD,2024-04-29 13:54:00,15.08821833,0.000111,53.2177,227.7671,81.1982,278.9136,4.6751e-05,4.56e-06,0.0,0 STARLINK-3904,1 52464U 22049P   24120.57916704  .00000456  00000-0  46751-4 0  9998,2 52464  53.2177 227.7671 0001110  81.1982 278.9136 15.08821833109883,6917.936,95.439,540.569,539.033,0.0
52464.0,STARLINK-3904,PAYLOAD,2024-04-30 13:44:47,15.08810187,9.81e-05,53.2178,223.307,93.1559,266.9545,0.00047471,7.269e-05,0.0,0 STARLINK-3904,1 52464U 22049P   24121.57276789  .00007269  00000-0  47471-3 0  9999,2 52464  53.2178 223.3070 0000981  93.1559 266.9545 15.08810187109877,6917.972,95.439,540.515,539.158,0.0
52464.0,STARLINK-3904,PAYLOAD,2024-04-30 23:17:04,15.08845859,0.0001123,53.2182,221.5222,85.613,274.499,0.00020388,2.959e-05,0.0,0 STARLINK-3904,1 52464U 22049P   24121.97019139  .00002959  00000-0  20388-3 0  9996,2 52464  53.2182 221.5222 0001123  85.6130 274.4990 15.08845859110099,6917.862,95.437,540.504,538.951,0.0
52464.0,STARLINK-3904,PAYLOAD,2024-05-01 13:35:33,15.08838902,0.0001667,53.2179,218.8467,93.9166,266.2017,0.00012995,1.781e-05,0.0,0 STARLINK-3904,1 52464U 22049P   24122.56635986  .00001781  00000-0  12995-3 0  9993,2 52464  53.2179 218.8467 0001667  93.9166 266.2017 15.08838902110189,6917.884,95.438,540.902,538.596,0.0
52464.0,STARLINK-3904,PAYLOAD,2024-05-02 13:26:21,15.08833535,0.0001378,53.2183,214.3877,90.6006,269.5144,-7.7918e-05,-1.528e-05,0.0,0 STARLINK-3904,1 52464U 22049P   24123.55997069 -.00001528  00000-0 -77918-4 0  9994,2 52464  53.2183 214.3877 0001378  90.6006 269.5144 15.08833535110337,6917.9,95.438,540.718,538.812,0.0
52464.0,STARLINK-3904,PAYLOAD,2024-05-03 05:20:11,15.08835272,8.82e-05,53.2149,211.4085,71.7458,288.363,0.00013641,1.884e-05,0.0,0 STARLINK-3904,1 52464U 22049P   24124.22235984  .00001884  00000-0  13641-3 0  9995,2 52464  53.2149 211.4085 0000882  71.7458 288.3630 15.08835272110438,6917.895,95.438,540.37,539.15,0.0
52464.0,STARLINK-3904,PAYLOAD,2024-05-03 13:17:06,15.08853431,0.0001387,53.2174,209.9259,89.4823,270.6328,0.00010591,1.399e-05,0.0,0 STARLINK-3904,1 52464U 22049P   24124.55354928  .00001399  00000-0  10591-3 0  9993,2 52464  53.2174 209.9259 0001387  89.4823 270.6328 15.08853431110484,6917.839,95.437,540.664,538.745,0.0
52464.0,STARLINK-3904,PAYLOAD,2024-05-03 14:52:29,15.08856085,0.0001384,53.2174,209.6278,86.998,273.1171,0.00012628,1.723e-05,0.0,0 STARLINK-3904,1 52464U 22049P   24124.61978681  .00001723  00000-0  12628-3 0  9992,2 52464  53.2174 209.6278 0001384  86.9980 273.1171 15.08856085110331,6917.831,95.437,540.654,538.739,0.0
52464.0,STARLINK-3904,PAYLOAD,2024-05-04 05:11:00,15.08815607,0.0001595,53.2172,206.9522,89.0536,271.0639,2.6704e-05,1.37e-06,0.0,0 STARLINK-3904,1 52464U 22049P   24125.21597472  .00000137  00000-0  26704-4 0  9993,2 52464  53.2172 206.9522 0001595  89.0536 271.0639 15.08815607110584,6917.955,95.439,540.923,538.717,0.0
52464.0,STARLINK-3904,PAYLOAD,2024-05-04 13:07:55,15.08823588,0.0001289,53.2156,205.4649,91.1456,268.9684,-0.00011127,-2.057e-05,0.0,0 STARLINK-3904,1 52464U 22049P   24125.54716880 -.00002057  00000-0 -11127-3 0  9992,2 52464  53.2156 205.4649 0001289  91.1456 268.9684 15.08823588110633,6917.931,95.439,540.687,538.904,0.0
52464.0,STARLINK-3904,PAYLOAD,2024-05-05 05:01:46,15.08835043,0.0001259,53.216,202.4904,94.5613,265.5523,-8.8796e-06,-4.29e-06,0.0,0 STARLINK-3904,1 52464U 22049P   24126.20956606 -.00000429  00000-0 -88796-5 0  9997,2 52464  53.2160 202.4904 0001259  94.5613 265.5523 15.08835043110733,6917.896,95.438,540.632,538.89,0.0
52464.0,STARLINK-3904,PAYLOAD,2024-05-05 14:34:05,15.08843831,0.0001253,53.2158,200.707,94.6994,265.4141,0.0009382,0.00014677,0.0,0 STARLINK-3904,1 52464U 22049P   24126.60700974  .00014677  00000-0  93820-3 0  9996,2 52464  53.2158 200.7070 0001253  94.6994 265.4141 15.08843831110630,6917.869,95.437,540.6,538.867,0.0
52464.0,STARLINK-3904,PAYLOAD,2024-05-05 22:31:01,15.08854139,0.0001277,53.2156,199.2203,93.1829,266.9309,0.0009929,0.00015555,0.0,0 STARLINK-3904,1 52464U 22049P   24126.93820800  .00015555  00000-0  99290-3 0  9996,2 52464  53.2156 199.2203 0001277  93.1829 266.9309 15.08854139110685,6917.837,95.437,540.586,538.819,0.0
52464.0,STARLINK-3904,PAYLOAD,2024-05-06 11:14:05,15.08860937,0.0001353,53.216,196.8424,87.9864,272.1283,0.00078637,0.00012256,0.0,0 STARLINK-3904,1 52464U 22049P   24127.46812404  .00012256  00000-0  78637-3 0  9993,2 52464  53.2160 196.8424 0001353  87.9864 272.1283 15.08860937110923,6917.816,95.436,540.617,538.745,0.0
